{
  "type": "FeatureCollection",
  "features": [
    {
      "type": "Feature",
      "properties": {
        "norad_id": 58701,
        "name": "TIANMU-1 16",
        "group": "weather",
        "lat": -8.459564368148701,
        "lon": 161.62356652541837,
        "alt_km": 493.9471037129497,
        "timestamp": "2025-12-05T14:45:14.958076+00:00",
        "meta_object_name": "TIANMU-1 16",
        "meta_object_id": "2024-004B",
        "meta_epoch": "2025-12-04T10:25:53.796288",
        "meta_mean_motion": 15.24253221,
        "meta_eccentricity": 0.000511,
        "meta_inclination": 97.4569,
        "meta_ra_of_asc_node": 159.3334,
        "meta_arg_of_pericenter": 331.1239,
        "meta_mean_anomaly": 28.9715,
        "meta_ephemeris_type": 0,
        "meta_classification_type": "U",
        "meta_norad_cat_id": 58701,
        "meta_element_set_no": 999,
        "meta_rev_at_epoch": 10608,
        "meta_bstar": 8.3688e-05,
        "meta_mean_motion_dot": 1.97e-05,
        "meta_mean_motion_ddot": 0,
        "tle_line1": "1 58701U 24004B   25338.43465042  .00001970  00000+0  83688-4 0  9993",
        "tle_line2": "2 58701  97.4569 159.3334 0005110 331.1239  28.9715 15.24253221106084"
      },
      "geometry": {
        "type": "Point",
        "coordinates": [
          161.62356652541837,
          -8.459564368148701
        ]
      }
    },
    {
      "type": "Feature",
      "properties": {
        "norad_id": 58702,
        "name": "TIANMU-1 17",
        "group": "weather",
        "lat": 73.29480385237042,
        "lon": 135.02676847726764,
        "alt_km": 486.5003597575069,
        "timestamp": "2025-12-05T14:45:14.958085+00:00",
        "meta_object_name": "TIANMU-1 17",
        "meta_object_id": "2024-004C",
        "meta_epoch": "2025-12-04T17:56:42.695232",
        "meta_mean_motion": 15.24312361,
        "meta_eccentricity": 0.0004208,
        "meta_inclination": 97.4595,
        "meta_ra_of_asc_node": 160.0501,
        "meta_arg_of_pericenter": 333.5998,
        "meta_mean_anomaly": 26.5024,
        "meta_ephemeris_type": 0,
        "meta_classification_type": "U",
        "meta_norad_cat_id": 58702,
        "meta_element_set_no": 999,
        "meta_rev_at_epoch": 10612,
        "meta_bstar": 0.00054682,
        "meta_mean_motion_dot": 0.00013311,
        "meta_mean_motion_ddot": 0,
        "tle_line1": "1 58702U 24004C   25338.74771638  .00013311  00000+0  54682-3 0  9992",
        "tle_line2": "2 58702  97.4595 160.0501 0004208 333.5998  26.5024 15.24312361106127"
      },
      "geometry": {
        "type": "Point",
        "coordinates": [
          135.02676847726764,
          73.29480385237042
        ]
      }
    },
    {
      "type": "Feature",
      "properties": {
        "norad_id": 58703,
        "name": "TIANMU-1 18",
        "group": "weather",
        "lat": 12.990274783895746,
        "lon": -17.160716818128993,
        "alt_km": 496.4362261925444,
        "timestamp": "2025-12-05T14:45:14.958095+00:00",
        "meta_object_name": "TIANMU-1 18",
        "meta_object_id": "2024-004D",
        "meta_epoch": "2025-12-04T17:32:36.132000",
        "meta_mean_motion": 15.24303484,
        "meta_eccentricity": 0.0003586,
        "meta_inclination": 97.4613,
        "meta_ra_of_asc_node": 160.227,
        "meta_arg_of_pericenter": 334.7201,
        "meta_mean_anomaly": 25.386,
        "meta_ephemeris_type": 0,
        "meta_classification_type": "U",
        "meta_norad_cat_id": 58703,
        "meta_element_set_no": 999,
        "meta_rev_at_epoch": 10612,
        "meta_bstar": 0.00056601,
        "meta_mean_motion_dot": 0.00013777,
        "meta_mean_motion_ddot": 0,
        "tle_line1": "1 58703U 24004D   25338.73097375  .00013777  00000+0  56601-3 0  9990",
        "tle_line2": "2 58703  97.4613 160.2270 0003586 334.7201  25.3860 15.24303484106123"
      },
      "geometry": {
        "type": "Point",
        "coordinates": [
          -17.160716818128993,
          12.990274783895746
        ]
      }
    },
    {
      "type": "Feature",
      "properties": {
        "norad_id": 58990,
        "name": "INSAT-3DS",
        "group": "weather",
        "lat": 0.02327853933829613,
        "lon": 18.055107884171388,
        "alt_km": 35790.418967066,
        "timestamp": "2025-12-05T14:45:14.958109+00:00",
        "meta_object_name": "INSAT-3DS",
        "meta_object_id": "2024-033A",
        "meta_epoch": "2025-12-04T14:07:02.364384",
        "meta_mean_motion": 1.00268719,
        "meta_eccentricity": 0.0001758,
        "meta_inclination": 0.0119,
        "meta_ra_of_asc_node": 346.2482,
        "meta_arg_of_pericenter": 274.3669,
        "meta_mean_anomaly": 106.8853,
        "meta_ephemeris_type": 0,
        "meta_classification_type": "U",
        "meta_norad_cat_id": 58990,
        "meta_element_set_no": 999,
        "meta_rev_at_epoch": 4511,
        "meta_bstar": 0,
        "meta_mean_motion_dot": 0,
        "meta_mean_motion_ddot": 0,
        "tle_line1": "1 58990U 24033A   25338.58822181  .00000000  00000+0  00000+0 0  9997",
        "tle_line2": "2 58990   0.0119 346.2482 0001758 274.3669 106.8853  1.00268719 45117"
      },
      "geometry": {
        "type": "Point",
        "coordinates": [
          18.055107884171388,
          0.02327853933829613
        ]
      }
    },
    {
      "type": "Feature",
      "properties": {
        "norad_id": 59051,
        "name": "METEOR-M2 4",
        "group": "weather",
        "lat": 71.20005414473053,
        "lon": -90.01152959460926,
        "alt_km": 807.256427803678,
        "timestamp": "2025-12-05T14:45:14.958120+00:00",
        "meta_object_name": "METEOR-M2 4",
        "meta_object_id": "2024-039A",
        "meta_epoch": "2025-12-04T18:09:09.180000",
        "meta_mean_motion": 14.22399386,
        "meta_eccentricity": 0.0007471,
        "meta_inclination": 98.6754,
        "meta_ra_of_asc_node": 295.7909,
        "meta_arg_of_pericenter": 20.8279,
        "meta_mean_anomaly": 339.3202,
        "meta_ephemeris_type": 0,
        "meta_classification_type": "U",
        "meta_norad_cat_id": 59051,
        "meta_element_set_no": 999,
        "meta_rev_at_epoch": 9162,
        "meta_bstar": 6.2659e-05,
        "meta_mean_motion_dot": 9.6e-07,
        "meta_mean_motion_ddot": 0,
        "tle_line1": "1 59051U 24039A   25338.75635625  .00000096  00000+0  62659-4 0  9994",
        "tle_line2": "2 59051  98.6754 295.7909 0007471  20.8279 339.3202 14.22399386 91626"
      },
      "geometry": {
        "type": "Point",
        "coordinates": [
          -90.01152959460926,
          71.20005414473053
        ]
      }
    },
    {
      "type": "Feature",
      "properties": {
        "norad_id": 60133,
        "name": "GOES 19",
        "group": "weather",
        "lat": -0.0021930877997485398,
        "lon": -139.23308573078322,
        "alt_km": 35785.25892964699,
        "timestamp": "2025-12-05T14:45:14.958131+00:00",
        "meta_object_name": "GOES 19",
        "meta_object_id": "2024-119A",
        "meta_epoch": "2025-12-04T11:39:20.571264",
        "meta_mean_motion": 1.00270587,
        "meta_eccentricity": 0.0001344,
        "meta_inclination": 0.0089,
        "meta_ra_of_asc_node": 79.657,
        "meta_arg_of_pericenter": 218.516,
        "meta_mean_anomaly": 235.0408,
        "meta_ephemeris_type": 0,
        "meta_classification_type": "U",
        "meta_norad_cat_id": 60133,
        "meta_element_set_no": 999,
        "meta_rev_at_epoch": 501,
        "meta_bstar": 0,
        "meta_mean_motion_dot": -2.33e-06,
        "meta_mean_motion_ddot": 0,
        "tle_line1": "1 60133U 24119A   25338.48565476 -.00000233  00000+0  00000+0 0  9993",
        "tle_line2": "2 60133   0.0089  79.6570 0001344 218.5160 235.0408  1.00270587  5019"
      },
      "geometry": {
        "type": "Point",
        "coordinates": [
          -139.23308573078322,
          -0.0021930877997485398
        ]
      }
    },
    {
      "type": "Feature",
      "properties": {
        "norad_id": 65815,
        "name": "FENGYUN 3H",
        "group": "weather",
        "lat": 15.801698340018277,
        "lon": -83.11110556287497,
        "alt_km": 826.0820563263269,
        "timestamp": "2025-12-05T14:45:14.958142+00:00",
        "meta_object_name": "FENGYUN 3H",
        "meta_object_id": "2025-219A",
        "meta_epoch": "2025-12-04T16:41:35.952864",
        "meta_mean_motion": 14.19901167,
        "meta_eccentricity": 6.19e-05,
        "meta_inclination": 98.6572,
        "meta_ra_of_asc_node": 278.4611,
        "meta_arg_of_pericenter": 73.715,
        "meta_mean_anomaly": 286.4095,
        "meta_ephemeris_type": 0,
        "meta_classification_type": "U",
        "meta_norad_cat_id": 65815,
        "meta_element_set_no": 999,
        "meta_rev_at_epoch": 978,
        "meta_bstar": 0.00011312,
        "meta_mean_motion_dot": 1.97e-06,
        "meta_mean_motion_ddot": 0,
        "tle_line1": "1 65815U 25219A   25338.69555501  .00000197  00000+0  11312-3 0  9998",
        "tle_line2": "2 65815  98.6572 278.4611 0000619  73.7150 286.4095 14.19901167  9789"
      },
      "geometry": {
        "type": "Point",
        "coordinates": [
          -83.11110556287497,
          15.801698340018277
        ]
      }
    }
  ]
}